<?xml version="1.0" encoding="utf-8" standalone="yes"?>
<gpx version="1.1" creator="GPS Visualizer https://www.gpsvisualizer.com/" xmlns="http://www.topografix.com/GPX/1/1" xmlns:xsi="http://www.w3.org/2001/XMLSchema-instance" xsi:schemaLocation="http://www.topografix.com/GPX/1/1 http://www.topografix.com/GPX/1/1/gpx.xsd http://www.garmin.com/xmlschemas/TrackPointExtension/v2 http://www.garmin.com/xmlschemas/TrackPointExtensionv2.xsd http://www.garmin.com/xmlschemas/GpxExtensions/v3 http://www.garmin.com/xmlschemas/GpxExtensionsv3.xsd" xmlns:gpxtpx="http://www.garmin.com/xmlschemas/TrackPointExtension/v2" xmlns:gpxx="http://www.garmin.com/xmlschemas/GpxExtensions/v3">
<wpt lat="55.62876" lon="12.57896">
  <name>Start of 10.55 km route</name>
  <sym>https://www.gstatic.com/mapspro/images/stock/61-green-dot.png</sym>
</wpt>
<wpt lat="55.63315" lon="12.58027">
  <name>End of 10.55 km route</name>
  <sym>https://www.gstatic.com/mapspro/images/stock/123-red-dot.png</sym>
</wpt>
<trk>
  <name>10.55 km route</name>
  <desc>Statistics computed from imported data&lt;br&gt;&lt;br&gt;Distance: 6.6 miles</desc>
  <trkseg>
    <trkpt lat="55.62876" lon="12.57896"></trkpt>
    <trkpt lat="55.62905" lon="12.57548"></trkpt>
    <trkpt lat="55.62904" lon="12.57555"></trkpt>
    <trkpt lat="55.62889" lon="12.57551"></trkpt>
    <trkpt lat="55.6289" lon="12.57537"></trkpt>
    <trkpt lat="55.62893" lon="12.57491"></trkpt>
    <trkpt lat="55.62915" lon="12.57377"></trkpt>
    <trkpt lat="55.6292" lon="12.57329"></trkpt>
    <trkpt lat="55.62936" lon="12.57199"></trkpt>
    <trkpt lat="55.62945" lon="12.5718"></trkpt>
    <trkpt lat="55.62957" lon="12.57167"></trkpt>
    <trkpt lat="55.62965" lon="12.57166"></trkpt>
    <trkpt lat="55.62971" lon="12.57166"></trkpt>
    <trkpt lat="55.6301" lon="12.57183"></trkpt>
    <trkpt lat="55.6301" lon="12.57184"></trkpt>
    <trkpt lat="55.63017" lon="12.57108"></trkpt>
    <trkpt lat="55.62983" lon="12.57093"></trkpt>
    <trkpt lat="55.62975" lon="12.57087"></trkpt>
    <trkpt lat="55.62971" lon="12.57076"></trkpt>
    <trkpt lat="55.6297" lon="12.57055"></trkpt>
    <trkpt lat="55.62973" lon="12.57029"></trkpt>
    <trkpt lat="55.62981" lon="12.56976"></trkpt>
    <trkpt lat="55.63022" lon="12.56801"></trkpt>
    <trkpt lat="55.63024" lon="12.56791"></trkpt>
    <trkpt lat="55.63026" lon="12.56775"></trkpt>
    <trkpt lat="55.63018" lon="12.56775"></trkpt>
    <trkpt lat="55.62939" lon="12.56768"></trkpt>
    <trkpt lat="55.62924" lon="12.56762"></trkpt>
    <trkpt lat="55.62916" lon="12.56759"></trkpt>
    <trkpt lat="55.62891" lon="12.5675"></trkpt>
    <trkpt lat="55.62818" lon="12.56719"></trkpt>
    <trkpt lat="55.62792" lon="12.5671"></trkpt>
    <trkpt lat="55.62783" lon="12.56706"></trkpt>
    <trkpt lat="55.62769" lon="12.567"></trkpt>
    <trkpt lat="55.62771" lon="12.567"></trkpt>
    <trkpt lat="55.62779" lon="12.56699"></trkpt>
    <trkpt lat="55.62784" lon="12.56668"></trkpt>
    <trkpt lat="55.62791" lon="12.56642"></trkpt>
    <trkpt lat="55.62798" lon="12.5663"></trkpt>
    <trkpt lat="55.62806" lon="12.56597"></trkpt>
    <trkpt lat="55.62811" lon="12.56568"></trkpt>
    <trkpt lat="55.62815" lon="12.56512"></trkpt>
    <trkpt lat="55.62826" lon="12.56348"></trkpt>
    <trkpt lat="55.62858" lon="12.55844"></trkpt>
    <trkpt lat="55.62858" lon="12.55819"></trkpt>
    <trkpt lat="55.62853" lon="12.55792"></trkpt>
    <trkpt lat="55.62852" lon="12.55752"></trkpt>
    <trkpt lat="55.62859" lon="12.55735"></trkpt>
    <trkpt lat="55.62862" lon="12.55673"></trkpt>
    <trkpt lat="55.62863" lon="12.55649"></trkpt>
    <trkpt lat="55.6287" lon="12.55611"></trkpt>
    <trkpt lat="55.62881" lon="12.55352"></trkpt>
    <trkpt lat="55.62878" lon="12.55327"></trkpt>
    <trkpt lat="55.6287" lon="12.55308"></trkpt>
    <trkpt lat="55.62879" lon="12.55279"></trkpt>
    <trkpt lat="55.6288" lon="12.55269"></trkpt>
    <trkpt lat="55.6288" lon="12.55259"></trkpt>
    <trkpt lat="55.62876" lon="12.55235"></trkpt>
    <trkpt lat="55.62877" lon="12.55219"></trkpt>
    <trkpt lat="55.6288" lon="12.55206"></trkpt>
    <trkpt lat="55.62878" lon="12.55185"></trkpt>
    <trkpt lat="55.62869" lon="12.55154"></trkpt>
    <trkpt lat="55.62862" lon="12.55106"></trkpt>
    <trkpt lat="55.62837" lon="12.54759"></trkpt>
    <trkpt lat="55.62831" lon="12.54678"></trkpt>
    <trkpt lat="55.62829" lon="12.54672"></trkpt>
    <trkpt lat="55.62831" lon="12.5465"></trkpt>
    <trkpt lat="55.62834" lon="12.54641"></trkpt>
    <trkpt lat="55.62839" lon="12.54637"></trkpt>
    <trkpt lat="55.62848" lon="12.54615"></trkpt>
    <trkpt lat="55.62839" lon="12.54584"></trkpt>
    <trkpt lat="55.62882" lon="12.54515"></trkpt>
    <trkpt lat="55.62898" lon="12.54485"></trkpt>
    <trkpt lat="55.62897" lon="12.54462"></trkpt>
    <trkpt lat="55.62874" lon="12.54252"></trkpt>
    <trkpt lat="55.62859" lon="12.5416"></trkpt>
    <trkpt lat="55.62838" lon="12.54064"></trkpt>
    <trkpt lat="55.62821" lon="12.54002"></trkpt>
    <trkpt lat="55.62813" lon="12.53973"></trkpt>
    <trkpt lat="55.62796" lon="12.53907"></trkpt>
    <trkpt lat="55.62786" lon="12.53877"></trkpt>
    <trkpt lat="55.62777" lon="12.53857"></trkpt>
    <trkpt lat="55.62765" lon="12.5384"></trkpt>
    <trkpt lat="55.62679" lon="12.53737"></trkpt>
    <trkpt lat="55.62657" lon="12.53703"></trkpt>
    <trkpt lat="55.62627" lon="12.53642"></trkpt>
    <trkpt lat="55.62604" lon="12.53591"></trkpt>
    <trkpt lat="55.62564" lon="12.535"></trkpt>
    <trkpt lat="55.62529" lon="12.53434"></trkpt>
    <trkpt lat="55.62478" lon="12.53361"></trkpt>
    <trkpt lat="55.62456" lon="12.53333"></trkpt>
    <trkpt lat="55.6243" lon="12.53303"></trkpt>
    <trkpt lat="55.62391" lon="12.53266"></trkpt>
    <trkpt lat="55.62383" lon="12.53261"></trkpt>
    <trkpt lat="55.62376" lon="12.53249"></trkpt>
    <trkpt lat="55.62344" lon="12.53215"></trkpt>
    <trkpt lat="55.62313" lon="12.53196"></trkpt>
    <trkpt lat="55.62274" lon="12.53166"></trkpt>
    <trkpt lat="55.62266" lon="12.53155"></trkpt>
    <trkpt lat="55.62239" lon="12.53133"></trkpt>
    <trkpt lat="55.62216" lon="12.53111"></trkpt>
    <trkpt lat="55.62145" lon="12.53055"></trkpt>
    <trkpt lat="55.62104" lon="12.53026"></trkpt>
    <trkpt lat="55.62098" lon="12.53024"></trkpt>
    <trkpt lat="55.62094" lon="12.53026"></trkpt>
    <trkpt lat="55.62074" lon="12.53078"></trkpt>
    <trkpt lat="55.6207" lon="12.53084"></trkpt>
    <trkpt lat="55.62064" lon="12.53089"></trkpt>
    <trkpt lat="55.62044" lon="12.53094"></trkpt>
    <trkpt lat="55.62033" lon="12.53094"></trkpt>
    <trkpt lat="55.62015" lon="12.53144"></trkpt>
    <trkpt lat="55.6201" lon="12.53155"></trkpt>
    <trkpt lat="55.62005" lon="12.53159"></trkpt>
    <trkpt lat="55.61999" lon="12.53181"></trkpt>
    <trkpt lat="55.61994" lon="12.53188"></trkpt>
    <trkpt lat="55.6199" lon="12.53188"></trkpt>
    <trkpt lat="55.61984" lon="12.53183"></trkpt>
    <trkpt lat="55.61981" lon="12.53165"></trkpt>
    <trkpt lat="55.61982" lon="12.53154"></trkpt>
    <trkpt lat="55.61981" lon="12.53165"></trkpt>
    <trkpt lat="55.61984" lon="12.53183"></trkpt>
    <trkpt lat="55.61987" lon="12.53211"></trkpt>
    <trkpt lat="55.61966" lon="12.53251"></trkpt>
    <trkpt lat="55.6196" lon="12.53254"></trkpt>
    <trkpt lat="55.61925" lon="12.53236"></trkpt>
    <trkpt lat="55.61903" lon="12.53217"></trkpt>
    <trkpt lat="55.61825" lon="12.53161"></trkpt>
    <trkpt lat="55.61811" lon="12.53144"></trkpt>
    <trkpt lat="55.61718" lon="12.5329"></trkpt>
    <trkpt lat="55.61663" lon="12.53367"></trkpt>
    <trkpt lat="55.61621" lon="12.53418"></trkpt>
    <trkpt lat="55.61584" lon="12.53488"></trkpt>
    <trkpt lat="55.61568" lon="12.5351"></trkpt>
    <trkpt lat="55.61553" lon="12.53516"></trkpt>
    <trkpt lat="55.61544" lon="12.53516"></trkpt>
    <trkpt lat="55.61539" lon="12.53553"></trkpt>
    <trkpt lat="55.61533" lon="12.53571"></trkpt>
    <trkpt lat="55.61376" lon="12.5381"></trkpt>
    <trkpt lat="55.61373" lon="12.53824"></trkpt>
    <trkpt lat="55.61376" lon="12.54079"></trkpt>
    <trkpt lat="55.61389" lon="12.54079"></trkpt>
    <trkpt lat="55.61438" lon="12.54079"></trkpt>
    <trkpt lat="55.61447" lon="12.54082"></trkpt>
    <trkpt lat="55.61459" lon="12.54095"></trkpt>
    <trkpt lat="55.61488" lon="12.54136"></trkpt>
    <trkpt lat="55.61501" lon="12.54164"></trkpt>
    <trkpt lat="55.61529" lon="12.54213"></trkpt>
    <trkpt lat="55.61547" lon="12.54242"></trkpt>
    <trkpt lat="55.61554" lon="12.54248"></trkpt>
    <trkpt lat="55.61569" lon="12.54255"></trkpt>
    <trkpt lat="55.61588" lon="12.54256"></trkpt>
    <trkpt lat="55.61633" lon="12.54244"></trkpt>
    <trkpt lat="55.61636" lon="12.54243"></trkpt>
    <trkpt lat="55.61658" lon="12.54242"></trkpt>
    <trkpt lat="55.61664" lon="12.54238"></trkpt>
    <trkpt lat="55.61717" lon="12.54169"></trkpt>
    <trkpt lat="55.61743" lon="12.5413"></trkpt>
    <trkpt lat="55.6188" lon="12.53947"></trkpt>
    <trkpt lat="55.61913" lon="12.53899"></trkpt>
    <trkpt lat="55.6192" lon="12.53893"></trkpt>
    <trkpt lat="55.61948" lon="12.53884"></trkpt>
    <trkpt lat="55.62028" lon="12.53875"></trkpt>
    <trkpt lat="55.62084" lon="12.53865"></trkpt>
    <trkpt lat="55.62126" lon="12.53842"></trkpt>
    <trkpt lat="55.62175" lon="12.53805"></trkpt>
    <trkpt lat="55.62185" lon="12.53802"></trkpt>
    <trkpt lat="55.62192" lon="12.538"></trkpt>
    <trkpt lat="55.62196" lon="12.53802"></trkpt>
    <trkpt lat="55.6221" lon="12.53814"></trkpt>
    <trkpt lat="55.62216" lon="12.53795"></trkpt>
    <trkpt lat="55.62221" lon="12.53785"></trkpt>
    <trkpt lat="55.62228" lon="12.53777"></trkpt>
    <trkpt lat="55.62231" lon="12.53775"></trkpt>
    <trkpt lat="55.62237" lon="12.53773"></trkpt>
    <trkpt lat="55.6225" lon="12.53774"></trkpt>
    <trkpt lat="55.62256" lon="12.53768"></trkpt>
    <trkpt lat="55.62296" lon="12.53799"></trkpt>
    <trkpt lat="55.62316" lon="12.53832"></trkpt>
    <trkpt lat="55.62339" lon="12.5386"></trkpt>
    <trkpt lat="55.62427" lon="12.53934"></trkpt>
    <trkpt lat="55.6244" lon="12.53947"></trkpt>
    <trkpt lat="55.6246" lon="12.53981"></trkpt>
    <trkpt lat="55.6247" lon="12.54003"></trkpt>
    <trkpt lat="55.625" lon="12.54134"></trkpt>
    <trkpt lat="55.62506" lon="12.54171"></trkpt>
    <trkpt lat="55.62507" lon="12.54204"></trkpt>
    <trkpt lat="55.6252" lon="12.54326"></trkpt>
    <trkpt lat="55.62536" lon="12.54421"></trkpt>
    <trkpt lat="55.62542" lon="12.54441"></trkpt>
    <trkpt lat="55.6257" lon="12.54491"></trkpt>
    <trkpt lat="55.62591" lon="12.54502"></trkpt>
    <trkpt lat="55.62611" lon="12.54522"></trkpt>
    <trkpt lat="55.62674" lon="12.546"></trkpt>
    <trkpt lat="55.62685" lon="12.54621"></trkpt>
    <trkpt lat="55.62697" lon="12.54654"></trkpt>
    <trkpt lat="55.62724" lon="12.54724"></trkpt>
    <trkpt lat="55.62729" lon="12.54739"></trkpt>
    <trkpt lat="55.62728" lon="12.54758"></trkpt>
    <trkpt lat="55.62724" lon="12.54772"></trkpt>
    <trkpt lat="55.626" lon="12.54985"></trkpt>
    <trkpt lat="55.62582" lon="12.55008"></trkpt>
    <trkpt lat="55.62563" lon="12.55023"></trkpt>
    <trkpt lat="55.6255" lon="12.55047"></trkpt>
    <trkpt lat="55.62549" lon="12.55053"></trkpt>
    <trkpt lat="55.62542" lon="12.55092"></trkpt>
    <trkpt lat="55.62548" lon="12.55142"></trkpt>
    <trkpt lat="55.6258" lon="12.55244"></trkpt>
    <trkpt lat="55.62602" lon="12.55333"></trkpt>
    <trkpt lat="55.62604" lon="12.55533"></trkpt>
    <trkpt lat="55.62607" lon="12.55578"></trkpt>
    <trkpt lat="55.62608" lon="12.55631"></trkpt>
    <trkpt lat="55.62603" lon="12.5574"></trkpt>
    <trkpt lat="55.626" lon="12.55942"></trkpt>
    <trkpt lat="55.626" lon="12.56129"></trkpt>
    <trkpt lat="55.62608" lon="12.5619"></trkpt>
    <trkpt lat="55.62607" lon="12.56216"></trkpt>
    <trkpt lat="55.626" lon="12.56266"></trkpt>
    <trkpt lat="55.62598" lon="12.5655"></trkpt>
    <trkpt lat="55.62597" lon="12.5663"></trkpt>
    <trkpt lat="55.62769" lon="12.567"></trkpt>
    <trkpt lat="55.62771" lon="12.567"></trkpt>
    <trkpt lat="55.62779" lon="12.56699"></trkpt>
    <trkpt lat="55.62786" lon="12.56699"></trkpt>
    <trkpt lat="55.62792" lon="12.5671"></trkpt>
    <trkpt lat="55.62818" lon="12.56719"></trkpt>
    <trkpt lat="55.62891" lon="12.5675"></trkpt>
    <trkpt lat="55.62916" lon="12.56759"></trkpt>
    <trkpt lat="55.62924" lon="12.56762"></trkpt>
    <trkpt lat="55.62939" lon="12.56768"></trkpt>
    <trkpt lat="55.63018" lon="12.56775"></trkpt>
    <trkpt lat="55.63026" lon="12.56775"></trkpt>
    <trkpt lat="55.63112" lon="12.56783"></trkpt>
    <trkpt lat="55.63111" lon="12.56794"></trkpt>
    <trkpt lat="55.6311" lon="12.568"></trkpt>
    <trkpt lat="55.63111" lon="12.56821"></trkpt>
    <trkpt lat="55.63117" lon="12.5684"></trkpt>
    <trkpt lat="55.63125" lon="12.5685"></trkpt>
    <trkpt lat="55.63132" lon="12.56854"></trkpt>
    <trkpt lat="55.63157" lon="12.56859"></trkpt>
    <trkpt lat="55.63181" lon="12.56882"></trkpt>
    <trkpt lat="55.632" lon="12.56893"></trkpt>
    <trkpt lat="55.63227" lon="12.56902"></trkpt>
    <trkpt lat="55.63314" lon="12.56972"></trkpt>
    <trkpt lat="55.63324" lon="12.56981"></trkpt>
    <trkpt lat="55.63325" lon="12.56981"></trkpt>
    <trkpt lat="55.63335" lon="12.5698"></trkpt>
    <trkpt lat="55.63341" lon="12.56976"></trkpt>
    <trkpt lat="55.63352" lon="12.56957"></trkpt>
    <trkpt lat="55.63381" lon="12.56896"></trkpt>
    <trkpt lat="55.63391" lon="12.56884"></trkpt>
    <trkpt lat="55.6341" lon="12.56874"></trkpt>
    <trkpt lat="55.63417" lon="12.56875"></trkpt>
    <trkpt lat="55.63421" lon="12.56883"></trkpt>
    <trkpt lat="55.63428" lon="12.5692"></trkpt>
    <trkpt lat="55.63418" lon="12.56921"></trkpt>
    <trkpt lat="55.63404" lon="12.56915"></trkpt>
    <trkpt lat="55.634" lon="12.56919"></trkpt>
    <trkpt lat="55.63393" lon="12.56941"></trkpt>
    <trkpt lat="55.63367" lon="12.56977"></trkpt>
    <trkpt lat="55.63343" lon="12.57026"></trkpt>
    <trkpt lat="55.63319" lon="12.57069"></trkpt>
    <trkpt lat="55.63313" lon="12.57086"></trkpt>
    <trkpt lat="55.63306" lon="12.57103"></trkpt>
    <trkpt lat="55.63266" lon="12.57174"></trkpt>
    <trkpt lat="55.63259" lon="12.57195"></trkpt>
    <trkpt lat="55.63261" lon="12.57204"></trkpt>
    <trkpt lat="55.63265" lon="12.5721"></trkpt>
    <trkpt lat="55.63292" lon="12.57227"></trkpt>
    <trkpt lat="55.63291" lon="12.5724"></trkpt>
    <trkpt lat="55.6347" lon="12.57315"></trkpt>
    <trkpt lat="55.63447" lon="12.57421"></trkpt>
    <trkpt lat="55.63435" lon="12.57473"></trkpt>
    <trkpt lat="55.63419" lon="12.57551"></trkpt>
    <trkpt lat="55.63394" lon="12.57663"></trkpt>
    <trkpt lat="55.63377" lon="12.5774"></trkpt>
    <trkpt lat="55.63367" lon="12.57783"></trkpt>
    <trkpt lat="55.63349" lon="12.57869"></trkpt>
    <trkpt lat="55.63328" lon="12.57962"></trkpt>
    <trkpt lat="55.6332" lon="12.57998"></trkpt>
    <trkpt lat="55.63315" lon="12.58027"></trkpt>
  </trkseg>
</trk>
</gpx>
