<?xml version="1.0" encoding="UTF-8" standalone="yes"?>
<gpx version="1.1" creator="https://onthegomap.com" xmlns="http://www.topografix.com/GPX/1/1">
  <metadata>
    <name>14.1km route</name>
    <link href="https://onthegomap.com">
      <text>On The Go Map</text>
    </link>
    <time>2026-06-14T17:42:35.274Z</time>
    <copyright author="On The Go Map, OpenStreetMap Contributors">
      <year>2026</year>
    </copyright>
  </metadata>
  <trk>
    <name>14.1km route</name>
    <trkseg>
      <trkpt lat="55.62892" lon="12.57879"/>
      <trkpt lat="55.62894" lon="12.57803"/>
      <trkpt lat="55.62899" lon="12.577"/>
      <trkpt lat="55.62901" lon="12.57666"/>
      <trkpt lat="55.62908" lon="12.57579"/>
      <trkpt lat="55.62908" lon="12.57575"/>
      <trkpt lat="55.62906" lon="12.57572"/>
      <trkpt lat="55.62905" lon="12.57572"/>
      <trkpt lat="55.62903" lon="12.5757"/>
      <trkpt lat="55.62896" lon="12.57631"/>
      <trkpt lat="55.62894" lon="12.57636"/>
      <trkpt lat="55.62893" lon="12.57636"/>
      <trkpt lat="55.6289" lon="12.57635"/>
      <trkpt lat="55.62888" lon="12.57633"/>
      <trkpt lat="55.62887" lon="12.57627"/>
      <trkpt lat="55.6289" lon="12.57551"/>
      <trkpt lat="55.62894" lon="12.57489"/>
      <trkpt lat="55.62899" lon="12.57463"/>
      <trkpt lat="55.62917" lon="12.57366"/>
      <trkpt lat="55.62921" lon="12.57323"/>
      <trkpt lat="55.62935" lon="12.57208"/>
      <trkpt lat="55.62938" lon="12.57197"/>
      <trkpt lat="55.6294" lon="12.57191"/>
      <trkpt lat="55.62946" lon="12.57181"/>
      <trkpt lat="55.62948" lon="12.57177"/>
      <trkpt lat="55.62951" lon="12.57173"/>
      <trkpt lat="55.62957" lon="12.57168"/>
      <trkpt lat="55.62961" lon="12.57166"/>
      <trkpt lat="55.62965" lon="12.57165"/>
      <trkpt lat="55.62975" lon="12.57168"/>
      <trkpt lat="55.63009" lon="12.57183"/>
      <trkpt lat="55.63011" lon="12.57184"/>
      <trkpt lat="55.63013" lon="12.5716"/>
      <trkpt lat="55.63014" lon="12.5714"/>
      <trkpt lat="55.63018" lon="12.57108"/>
      <trkpt lat="55.62984" lon="12.57094"/>
      <trkpt lat="55.62976" lon="12.57088"/>
      <trkpt lat="55.62972" lon="12.57076"/>
      <trkpt lat="55.62971" lon="12.57056"/>
      <trkpt lat="55.62973" lon="12.5703"/>
      <trkpt lat="55.62982" lon="12.56976"/>
      <trkpt lat="55.63023" lon="12.56802"/>
      <trkpt lat="55.63027" lon="12.56775"/>
      <trkpt lat="55.63022" lon="12.56775"/>
      <trkpt lat="55.63018" lon="12.56775"/>
      <trkpt lat="55.6294" lon="12.56769"/>
      <trkpt lat="55.62924" lon="12.56763"/>
      <trkpt lat="55.62923" lon="12.56762"/>
      <trkpt lat="55.62916" lon="12.5676"/>
      <trkpt lat="55.62892" lon="12.5675"/>
      <trkpt lat="55.62819" lon="12.5672"/>
      <trkpt lat="55.62793" lon="12.5671"/>
      <trkpt lat="55.62785" lon="12.56707"/>
      <trkpt lat="55.6277" lon="12.567"/>
      <trkpt lat="55.62767" lon="12.56699"/>
      <trkpt lat="55.6277" lon="12.567"/>
      <trkpt lat="55.62772" lon="12.567"/>
      <trkpt lat="55.62772" lon="12.56694"/>
      <trkpt lat="55.62772" lon="12.56689"/>
      <trkpt lat="55.62769" lon="12.56677"/>
      <trkpt lat="55.62769" lon="12.56672"/>
      <trkpt lat="55.6277" lon="12.56667"/>
      <trkpt lat="55.62775" lon="12.56657"/>
      <trkpt lat="55.62778" lon="12.56652"/>
      <trkpt lat="55.62792" lon="12.56641"/>
      <trkpt lat="55.62798" lon="12.56631"/>
      <trkpt lat="55.62802" lon="12.5662"/>
      <trkpt lat="55.62807" lon="12.56598"/>
      <trkpt lat="55.62812" lon="12.56569"/>
      <trkpt lat="55.62819" lon="12.56469"/>
      <trkpt lat="55.62825" lon="12.56374"/>
      <trkpt lat="55.62825" lon="12.56357"/>
      <trkpt lat="55.62831" lon="12.56275"/>
      <trkpt lat="55.62837" lon="12.56194"/>
      <trkpt lat="55.62837" lon="12.56181"/>
      <trkpt lat="55.62838" lon="12.56167"/>
      <trkpt lat="55.62845" lon="12.56058"/>
      <trkpt lat="55.62859" lon="12.55845"/>
      <trkpt lat="55.62859" lon="12.55819"/>
      <trkpt lat="55.62854" lon="12.55793"/>
      <trkpt lat="55.62852" lon="12.55777"/>
      <trkpt lat="55.62852" lon="12.55753"/>
      <trkpt lat="55.62854" lon="12.55747"/>
      <trkpt lat="55.62855" lon="12.55745"/>
      <trkpt lat="55.6286" lon="12.55735"/>
      <trkpt lat="55.62862" lon="12.5568"/>
      <trkpt lat="55.62864" lon="12.5565"/>
      <trkpt lat="55.62865" lon="12.55638"/>
      <trkpt lat="55.6287" lon="12.55611"/>
      <trkpt lat="55.62882" lon="12.55352"/>
      <trkpt lat="55.62881" lon="12.55339"/>
      <trkpt lat="55.62879" lon="12.55328"/>
      <trkpt lat="55.62874" lon="12.55318"/>
      <trkpt lat="55.62871" lon="12.55308"/>
      <trkpt lat="55.6288" lon="12.5528"/>
      <trkpt lat="55.62881" lon="12.5527"/>
      <trkpt lat="55.62881" lon="12.5526"/>
      <trkpt lat="55.62878" lon="12.5525"/>
      <trkpt lat="55.62876" lon="12.55235"/>
      <trkpt lat="55.62877" lon="12.5522"/>
      <trkpt lat="55.6288" lon="12.5521"/>
      <trkpt lat="55.62881" lon="12.55207"/>
      <trkpt lat="55.62879" lon="12.55186"/>
      <trkpt lat="55.62869" lon="12.55155"/>
      <trkpt lat="55.62862" lon="12.55107"/>
      <trkpt lat="55.62859" lon="12.55072"/>
      <trkpt lat="55.62857" lon="12.55039"/>
      <trkpt lat="55.62846" lon="12.54885"/>
      <trkpt lat="55.62831" lon="12.54679"/>
      <trkpt lat="55.62831" lon="12.54677"/>
      <trkpt lat="55.6283" lon="12.54672"/>
      <trkpt lat="55.6283" lon="12.54654"/>
      <trkpt lat="55.62831" lon="12.5465"/>
      <trkpt lat="55.62835" lon="12.54642"/>
      <trkpt lat="55.62839" lon="12.54638"/>
      <trkpt lat="55.62848" lon="12.5462"/>
      <trkpt lat="55.62849" lon="12.54616"/>
      <trkpt lat="55.62848" lon="12.54611"/>
      <trkpt lat="55.6284" lon="12.54585"/>
      <trkpt lat="55.62882" lon="12.54516"/>
      <trkpt lat="55.62899" lon="12.54486"/>
      <trkpt lat="55.62899" lon="12.54477"/>
      <trkpt lat="55.62898" lon="12.54462"/>
      <trkpt lat="55.62889" lon="12.54382"/>
      <trkpt lat="55.62875" lon="12.54253"/>
      <trkpt lat="55.6286" lon="12.54161"/>
      <trkpt lat="55.62838" lon="12.54064"/>
      <trkpt lat="55.62821" lon="12.54003"/>
      <trkpt lat="55.62814" lon="12.53974"/>
      <trkpt lat="55.62796" lon="12.53907"/>
      <trkpt lat="55.62787" lon="12.53877"/>
      <trkpt lat="55.62777" lon="12.53857"/>
      <trkpt lat="55.62765" lon="12.5384"/>
      <trkpt lat="55.6268" lon="12.53738"/>
      <trkpt lat="55.62658" lon="12.53704"/>
      <trkpt lat="55.62646" lon="12.53681"/>
      <trkpt lat="55.62627" lon="12.53642"/>
      <trkpt lat="55.62626" lon="12.53638"/>
      <trkpt lat="55.62564" lon="12.535"/>
      <trkpt lat="55.62529" lon="12.53434"/>
      <trkpt lat="55.62511" lon="12.53407"/>
      <trkpt lat="55.62479" lon="12.53362"/>
      <trkpt lat="55.62456" lon="12.53334"/>
      <trkpt lat="55.62439" lon="12.53315"/>
      <trkpt lat="55.6243" lon="12.53303"/>
      <trkpt lat="55.62392" lon="12.53266"/>
      <trkpt lat="55.62384" lon="12.53262"/>
      <trkpt lat="55.62381" lon="12.53258"/>
      <trkpt lat="55.62377" lon="12.53249"/>
      <trkpt lat="55.62344" lon="12.53216"/>
      <trkpt lat="55.62314" lon="12.53197"/>
      <trkpt lat="55.62298" lon="12.53185"/>
      <trkpt lat="55.62274" lon="12.53166"/>
      <trkpt lat="55.62266" lon="12.53156"/>
      <trkpt lat="55.62239" lon="12.53134"/>
      <trkpt lat="55.62217" lon="12.53112"/>
      <trkpt lat="55.62189" lon="12.53089"/>
      <trkpt lat="55.62183" lon="12.53086"/>
      <trkpt lat="55.62146" lon="12.53056"/>
      <trkpt lat="55.62104" lon="12.53027"/>
      <trkpt lat="55.62099" lon="12.53025"/>
      <trkpt lat="55.62094" lon="12.53026"/>
      <trkpt lat="55.62092" lon="12.5303"/>
      <trkpt lat="55.62074" lon="12.53079"/>
      <trkpt lat="55.62071" lon="12.53085"/>
      <trkpt lat="55.62065" lon="12.53089"/>
      <trkpt lat="55.62045" lon="12.53095"/>
      <trkpt lat="55.62034" lon="12.53094"/>
      <trkpt lat="55.62032" lon="12.53097"/>
      <trkpt lat="55.62022" lon="12.53128"/>
      <trkpt lat="55.62016" lon="12.53145"/>
      <trkpt lat="55.6201" lon="12.53156"/>
      <trkpt lat="55.62005" lon="12.5316"/>
      <trkpt lat="55.62004" lon="12.53165"/>
      <trkpt lat="55.62" lon="12.53181"/>
      <trkpt lat="55.61994" lon="12.53188"/>
      <trkpt lat="55.61988" lon="12.53212"/>
      <trkpt lat="55.61966" lon="12.53252"/>
      <trkpt lat="55.6196" lon="12.53254"/>
      <trkpt lat="55.61925" lon="12.53237"/>
      <trkpt lat="55.61903" lon="12.53218"/>
      <trkpt lat="55.61825" lon="12.53161"/>
      <trkpt lat="55.61818" lon="12.53153"/>
      <trkpt lat="55.61811" lon="12.53145"/>
      <trkpt lat="55.61803" lon="12.53125"/>
      <trkpt lat="55.61792" lon="12.53112"/>
      <trkpt lat="55.61775" lon="12.531"/>
      <trkpt lat="55.61599" lon="12.52885"/>
      <trkpt lat="55.61588" lon="12.5286"/>
      <trkpt lat="55.61573" lon="12.52842"/>
      <trkpt lat="55.61544" lon="12.52821"/>
      <trkpt lat="55.61544" lon="12.52831"/>
      <trkpt lat="55.61024" lon="12.52196"/>
      <trkpt lat="55.61133" lon="12.5188"/>
      <trkpt lat="55.61151" lon="12.51835"/>
      <trkpt lat="55.61167" lon="12.51815"/>
      <trkpt lat="55.61182" lon="12.51799"/>
      <trkpt lat="55.61187" lon="12.51794"/>
      <trkpt lat="55.61165" lon="12.5175"/>
      <trkpt lat="55.61145" lon="12.51709"/>
      <trkpt lat="55.61123" lon="12.51693"/>
      <trkpt lat="55.61104" lon="12.51684"/>
      <trkpt lat="55.6108" lon="12.51676"/>
      <trkpt lat="55.61047" lon="12.51656"/>
      <trkpt lat="55.61006" lon="12.51602"/>
      <trkpt lat="55.60972" lon="12.51509"/>
      <trkpt lat="55.60947" lon="12.51371"/>
      <trkpt lat="55.60942" lon="12.51298"/>
      <trkpt lat="55.60942" lon="12.51199"/>
      <trkpt lat="55.60951" lon="12.51139"/>
      <trkpt lat="55.60979" lon="12.51027"/>
      <trkpt lat="55.60986" lon="12.51"/>
      <trkpt lat="55.61004" lon="12.51008"/>
      <trkpt lat="55.61052" lon="12.51036"/>
      <trkpt lat="55.61082" lon="12.51057"/>
      <trkpt lat="55.61114" lon="12.51083"/>
      <trkpt lat="55.61158" lon="12.51124"/>
      <trkpt lat="55.61189" lon="12.51155"/>
      <trkpt lat="55.61231" lon="12.51203"/>
      <trkpt lat="55.61262" lon="12.51249"/>
      <trkpt lat="55.61259" lon="12.5126"/>
      <trkpt lat="55.6126" lon="12.51278"/>
      <trkpt lat="55.61265" lon="12.51291"/>
      <trkpt lat="55.61309" lon="12.51353"/>
      <trkpt lat="55.6132" lon="12.51376"/>
      <trkpt lat="55.61321" lon="12.51378"/>
      <trkpt lat="55.61329" lon="12.51416"/>
      <trkpt lat="55.61336" lon="12.51535"/>
      <trkpt lat="55.61339" lon="12.51677"/>
      <trkpt lat="55.61339" lon="12.5169"/>
      <trkpt lat="55.61345" lon="12.51716"/>
      <trkpt lat="55.6135" lon="12.51734"/>
      <trkpt lat="55.61366" lon="12.5177"/>
      <trkpt lat="55.61404" lon="12.51933"/>
      <trkpt lat="55.61437" lon="12.52062"/>
      <trkpt lat="55.61444" lon="12.52081"/>
      <trkpt lat="55.61471" lon="12.52117"/>
      <trkpt lat="55.61502" lon="12.52209"/>
      <trkpt lat="55.61545" lon="12.52322"/>
      <trkpt lat="55.61546" lon="12.52476"/>
      <trkpt lat="55.61545" lon="12.52692"/>
      <trkpt lat="55.61544" lon="12.52821"/>
      <trkpt lat="55.61543" lon="12.52998"/>
      <trkpt lat="55.61545" lon="12.53289"/>
      <trkpt lat="55.61545" lon="12.53517"/>
      <trkpt lat="55.6154" lon="12.53548"/>
      <trkpt lat="55.61539" lon="12.53554"/>
      <trkpt lat="55.61534" lon="12.53571"/>
      <trkpt lat="55.61377" lon="12.5381"/>
      <trkpt lat="55.61374" lon="12.53824"/>
      <trkpt lat="55.61377" lon="12.54071"/>
      <trkpt lat="55.61377" lon="12.54079"/>
      <trkpt lat="55.61381" lon="12.54079"/>
      <trkpt lat="55.61439" lon="12.54079"/>
      <trkpt lat="55.61447" lon="12.54082"/>
      <trkpt lat="55.61459" lon="12.54096"/>
      <trkpt lat="55.61488" lon="12.54137"/>
      <trkpt lat="55.61501" lon="12.54165"/>
      <trkpt lat="55.61529" lon="12.54214"/>
      <trkpt lat="55.61547" lon="12.54242"/>
      <trkpt lat="55.61554" lon="12.54248"/>
      <trkpt lat="55.6157" lon="12.54255"/>
      <trkpt lat="55.61578" lon="12.54257"/>
      <trkpt lat="55.61588" lon="12.54256"/>
      <trkpt lat="55.61637" lon="12.54244"/>
      <trkpt lat="55.61659" lon="12.54242"/>
      <trkpt lat="55.61665" lon="12.54238"/>
      <trkpt lat="55.61718" lon="12.54169"/>
      <trkpt lat="55.61731" lon="12.5415"/>
      <trkpt lat="55.61744" lon="12.5413"/>
      <trkpt lat="55.61764" lon="12.54105"/>
      <trkpt lat="55.61859" lon="12.53975"/>
      <trkpt lat="55.6188" lon="12.53948"/>
      <trkpt lat="55.61897" lon="12.53922"/>
      <trkpt lat="55.61913" lon="12.539"/>
      <trkpt lat="55.6192" lon="12.53894"/>
      <trkpt lat="55.61949" lon="12.53885"/>
      <trkpt lat="55.61985" lon="12.53882"/>
      <trkpt lat="55.62029" lon="12.53876"/>
      <trkpt lat="55.62084" lon="12.53865"/>
      <trkpt lat="55.62127" lon="12.53842"/>
      <trkpt lat="55.62132" lon="12.53839"/>
      <trkpt lat="55.62145" lon="12.53828"/>
      <trkpt lat="55.62157" lon="12.53819"/>
      <trkpt lat="55.62165" lon="12.53814"/>
      <trkpt lat="55.62175" lon="12.53806"/>
      <trkpt lat="55.62185" lon="12.53802"/>
      <trkpt lat="55.62193" lon="12.53801"/>
      <trkpt lat="55.62197" lon="12.53802"/>
      <trkpt lat="55.62211" lon="12.53814"/>
      <trkpt lat="55.62217" lon="12.53796"/>
      <trkpt lat="55.62221" lon="12.53785"/>
      <trkpt lat="55.62229" lon="12.53777"/>
      <trkpt lat="55.62238" lon="12.53774"/>
      <trkpt lat="55.62245" lon="12.53775"/>
      <trkpt lat="55.6225" lon="12.53774"/>
      <trkpt lat="55.62257" lon="12.53768"/>
      <trkpt lat="55.62288" lon="12.53791"/>
      <trkpt lat="55.62296" lon="12.53799"/>
      <trkpt lat="55.62317" lon="12.53832"/>
      <trkpt lat="55.6234" lon="12.5386"/>
      <trkpt lat="55.62428" lon="12.53934"/>
      <trkpt lat="55.62438" lon="12.53946"/>
      <trkpt lat="55.62441" lon="12.53948"/>
      <trkpt lat="55.62449" lon="12.5396"/>
      <trkpt lat="55.62461" lon="12.53981"/>
      <trkpt lat="55.6247" lon="12.54004"/>
      <trkpt lat="55.62501" lon="12.54135"/>
      <trkpt lat="55.62506" lon="12.54172"/>
      <trkpt lat="55.62507" lon="12.54205"/>
      <trkpt lat="55.62512" lon="12.54248"/>
      <trkpt lat="55.62521" lon="12.54326"/>
      <trkpt lat="55.62536" lon="12.54421"/>
      <trkpt lat="55.62542" lon="12.54441"/>
      <trkpt lat="55.62571" lon="12.54491"/>
      <trkpt lat="55.62591" lon="12.54503"/>
      <trkpt lat="55.62611" lon="12.54523"/>
      <trkpt lat="55.62675" lon="12.54601"/>
      <trkpt lat="55.62685" lon="12.54621"/>
      <trkpt lat="55.62725" lon="12.54725"/>
      <trkpt lat="55.62729" lon="12.5474"/>
      <trkpt lat="55.62728" lon="12.54758"/>
      <trkpt lat="55.62724" lon="12.54773"/>
      <trkpt lat="55.626" lon="12.54986"/>
      <trkpt lat="55.62584" lon="12.55007"/>
      <trkpt lat="55.62583" lon="12.55008"/>
      <trkpt lat="55.62564" lon="12.55024"/>
      <trkpt lat="55.6255" lon="12.55047"/>
      <trkpt lat="55.62549" lon="12.55053"/>
      <trkpt lat="55.62543" lon="12.55093"/>
      <trkpt lat="55.62549" lon="12.55142"/>
      <trkpt lat="55.6258" lon="12.55244"/>
      <trkpt lat="55.62603" lon="12.55334"/>
      <trkpt lat="55.62604" lon="12.55534"/>
      <trkpt lat="55.62608" lon="12.55578"/>
      <trkpt lat="55.62609" lon="12.55631"/>
      <trkpt lat="55.62603" lon="12.5574"/>
      <trkpt lat="55.626" lon="12.55942"/>
      <trkpt lat="55.62601" lon="12.56129"/>
      <trkpt lat="55.62608" lon="12.5619"/>
      <trkpt lat="55.62608" lon="12.56216"/>
      <trkpt lat="55.626" lon="12.56266"/>
      <trkpt lat="55.62598" lon="12.56615"/>
      <trkpt lat="55.62598" lon="12.5663"/>
      <trkpt lat="55.6277" lon="12.567"/>
      <trkpt lat="55.62785" lon="12.56707"/>
      <trkpt lat="55.62793" lon="12.5671"/>
      <trkpt lat="55.62819" lon="12.5672"/>
      <trkpt lat="55.62892" lon="12.5675"/>
      <trkpt lat="55.62916" lon="12.5676"/>
      <trkpt lat="55.62924" lon="12.56763"/>
      <trkpt lat="55.6294" lon="12.56769"/>
      <trkpt lat="55.63018" lon="12.56775"/>
      <trkpt lat="55.63027" lon="12.56775"/>
      <trkpt lat="55.63113" lon="12.56784"/>
      <trkpt lat="55.63114" lon="12.56777"/>
      <trkpt lat="55.63113" lon="12.56784"/>
      <trkpt lat="55.6311" lon="12.568"/>
      <trkpt lat="55.6311" lon="12.56811"/>
      <trkpt lat="55.63111" lon="12.56822"/>
      <trkpt lat="55.63114" lon="12.56831"/>
      <trkpt lat="55.63117" lon="12.56841"/>
      <trkpt lat="55.63125" lon="12.56851"/>
      <trkpt lat="55.63132" lon="12.56854"/>
      <trkpt lat="55.63157" lon="12.5686"/>
      <trkpt lat="55.63182" lon="12.56882"/>
      <trkpt lat="55.632" lon="12.56893"/>
      <trkpt lat="55.63228" lon="12.56902"/>
      <trkpt lat="55.63272" lon="12.56937"/>
      <trkpt lat="55.633" lon="12.56963"/>
      <trkpt lat="55.63315" lon="12.56973"/>
      <trkpt lat="55.63317" lon="12.56975"/>
      <trkpt lat="55.63326" lon="12.56982"/>
      <trkpt lat="55.63335" lon="12.56981"/>
      <trkpt lat="55.63341" lon="12.56976"/>
      <trkpt lat="55.63353" lon="12.56958"/>
      <trkpt lat="55.63382" lon="12.56896"/>
      <trkpt lat="55.63391" lon="12.56885"/>
      <trkpt lat="55.6341" lon="12.56874"/>
      <trkpt lat="55.63418" lon="12.56876"/>
      <trkpt lat="55.63421" lon="12.56884"/>
      <trkpt lat="55.63429" lon="12.56921"/>
      <trkpt lat="55.63419" lon="12.56922"/>
      <trkpt lat="55.63404" lon="12.56915"/>
      <trkpt lat="55.634" lon="12.5692"/>
      <trkpt lat="55.63394" lon="12.56941"/>
      <trkpt lat="55.63367" lon="12.56977"/>
      <trkpt lat="55.63344" lon="12.57026"/>
      <trkpt lat="55.6332" lon="12.57069"/>
      <trkpt lat="55.63313" lon="12.57086"/>
      <trkpt lat="55.63307" lon="12.57104"/>
      <trkpt lat="55.63267" lon="12.57174"/>
      <trkpt lat="55.6326" lon="12.57195"/>
      <trkpt lat="55.63261" lon="12.57205"/>
      <trkpt lat="55.63266" lon="12.57211"/>
      <trkpt lat="55.63293" lon="12.57227"/>
      <trkpt lat="55.63293" lon="12.57229"/>
      <trkpt lat="55.63292" lon="12.5724"/>
      <trkpt lat="55.63465" lon="12.57313"/>
      <trkpt lat="55.63461" lon="12.57354"/>
      <trkpt lat="55.63461" lon="12.57356"/>
      <trkpt lat="55.63458" lon="12.57374"/>
      <trkpt lat="55.63436" lon="12.57474"/>
      <trkpt lat="55.63419" lon="12.57552"/>
      <trkpt lat="55.63395" lon="12.57663"/>
      <trkpt lat="55.63377" lon="12.5774"/>
      <trkpt lat="55.63368" lon="12.57783"/>
      <trkpt lat="55.63349" lon="12.57869"/>
      <trkpt lat="55.63341" lon="12.57904"/>
      <trkpt lat="55.63329" lon="12.57963"/>
      <trkpt lat="55.63321" lon="12.57999"/>
      <trkpt lat="55.63316" lon="12.58019"/>
      <trkpt lat="55.63316" lon="12.5802"/>
      <trkpt lat="55.63312" lon="12.58042"/>
    </trkseg>
  </trk>
</gpx>